NUSAT-50 (NANCY ROMAN)  
1 60493U 24149AB  26068.80227738  .00012094  00000+0  42252-3 0  9994
2 60493  97.3817 150.7693 0002523 238.0469 122.0527 15.29713355 86930
STARLINK-32705          
1 62479U 24254T   26068.18665754  .00028904  00000+0  10549-2 0  9992
2 62479  43.0028  11.6338 0001402 251.0494 109.0206 15.27607131 67500
